LEMUR-2-KREMPEL-BRO1    
1 63357U 25061G   26073.88796172  .00005842  00000+0  32578-3 0  9990
2 63357  97.5529  50.4438 0017967 209.9087 150.1119 15.13824465 53366
LEMUR-2-LANGER2SPACE    
1 63358U 25061H   26073.89563109  .00005719  00000+0  32206-3 0  9995
2 63358  97.5533  50.3035 0015720 218.6993 141.3114 15.13518063 53352
LEMUR-2-BALTO           
1 63395U 25052BH  26073.96847913  .00008738  00000+0  72520-3 0  9999
2 63395  97.6982 328.7236 0001617 354.8190   5.3015 14.99017854 54646
