[{"OBJECT_NAME":"LEMUR-2-KREMPEL-BRO1","OBJECT_ID":"2025-061G","EPOCH":"2026-03-14T21:18:39.892608","MEAN_MOTION":15.13824465,"ECCENTRICITY":0.00179678,"INCLINATION":97.5529,"RA_OF_ASC_NODE":50.4438,"ARG_OF_PERICENTER":209.9087,"MEAN_ANOMALY":150.1119,"EPHEMERIS_TYPE":0,"CLASSIFICATION_TYPE":"U","NORAD_CAT_ID":63357,"ELEMENT_SET_NO":999,"REV_AT_EPOCH":5336,"BSTAR":0.00032578033,"MEAN_MOTION_DOT":5.842e-5,"MEAN_MOTION_DDOT":0},{"OBJECT_NAME":"LEMUR-2-LANGER2SPACE","OBJECT_ID":"2025-061H","EPOCH":"2026-03-14T21:29:42.526176","MEAN_MOTION":15.13518063,"ECCENTRICITY":0.00157202,"INCLINATION":97.5533,"RA_OF_ASC_NODE":50.3035,"ARG_OF_PERICENTER":218.6993,"MEAN_ANOMALY":141.3114,"EPHEMERIS_TYPE":0,"CLASSIFICATION_TYPE":"U","NORAD_CAT_ID":63358,"ELEMENT_SET_NO":999,"REV_AT_EPOCH":5335,"BSTAR":0.00032206465,"MEAN_MOTION_DOT":5.719e-5,"MEAN_MOTION_DDOT":0},{"OBJECT_NAME":"LEMUR-2-BALTO","OBJECT_ID":"2025-052BH","EPOCH":"2026-03-14T23:14:36.596832","MEAN_MOTION":14.99017854,"ECCENTRICITY":0.00016172,"INCLINATION":97.6982,"RA_OF_ASC_NODE":328.7236,"ARG_OF_PERICENTER":354.819,"MEAN_ANOMALY":5.3015,"EPHEMERIS_TYPE":0,"CLASSIFICATION_TYPE":"U","NORAD_CAT_ID":63395,"ELEMENT_SET_NO":999,"REV_AT_EPOCH":5464,"BSTAR":0.00072519549,"MEAN_MOTION_DOT":8.738e-5,"MEAN_MOTION_DDOT":0}]
